0 DELTA 1 R/B(1)
1 11636U 79101B   13282.46612670  .00000161  00000-0  38850-4 0  5096
2 11636 028.2265 261.3695 1270117 239.9158 285.6020 12.19219331430981
0 DELTA 1 R/B(1)
1 11636U 79101B   13284.17748516  .00000278  00000-0  10990-3 0  5100
2 11636 028.2260 254.2536 1269990 251.5523 237.0792 12.19219832431191
0 DELTA 1 R/B(1)
1 11636U 79101B   13285.41358396  .00000282  00000-0  11277-3 0  5116
2 11636 028.2255 249.1137 1269953 259.9555 262.5564 12.19220054431346
0 DELTA 1 R/B(1)
1 11636U 79101B   13286.85167670  .00000400  00000-0  18540-3 0  5121
2 11636 028.2247 243.1337 1269815 269.7347 094.6231 12.19219951431516
0 DELTA 1 R/B(1)
1 11636U 79101B   13288.19557520  .00000522  00000-0  26046-3 0  5133
2 11636 028.2237 237.5452 1269704 278.8731 233.2522 12.19220941431688
0 DELTA 1 R/B(1)
1 11636U 79101B   13289.43077365  .00000422  00000-0  20113-3 0  5144
2 11636 028.2227 232.4083 1269626 287.2714 254.7808 12.19221633431830
0 DELTA 1 R/B(1)
1 11636U 79101B   13291.14095649  .00000465  00000-0  22927-3 0  5153
2 11636 028.2211 225.2955 1269497 298.9004 201.1143 12.19223035432048
0 DELTA 1 R/B(1)
1 11636U 79101B   13292.21375774  .00000451  00000-0  22253-3 0  5160
2 11636 028.2201 220.8330 1269434 306.1956 229.8564 12.19223958432176
0 DELTA 1 R/B(1)
1 11636U 79101B   13293.35965521  .00000441  00000-0  21813-3 0  5172
2 11636 028.2192 216.0664 1269362 313.9900 219.4335 12.19225276432319
0 DELTA 1 R/B(1)
1 11636U 79101B   13294.79917611  .00000417  00000-0  20612-3 0  5188
2 11636 028.2179 210.0782 1269292 323.7821 057.7912 12.19226754432486
0 DELTA 1 R/B(1)
1 11636U 79101B   13296.14446021  .00000364  00000-0  17580-3 0  5193
2 11636 028.2169 204.4815 1269297 332.9309 202.5324 12.19228282432651
